start=new Date('2022-06-29T00:00:00.000Z').valueOf();
sats=[{"INCLINATION":"53.2175","LAUNCH_DATE":"2022-03-19","OBJECT_TYPE":"PAYLOAD","TLE_LINE1":"1 52127U 22029AR  22179.91667824 -.00721869  00000-0 -40729-1 0  9994","GP_ID":"207062750","TLE_LINE2":"2 52127  53.2175   8.5831 0001542  49.9610 285.7962 15.15254362  1305","SEMIMAJOR_AXIS":"6898.343","RCS_SIZE":"LARGE","OBJECT_NAME":"STARLINK-3715","MEAN_ANOMALY":"285.7962","NORAD_CAT_ID":"52127","BSTAR":"-0.04072900000000","COUNTRY_CODE":"US","DECAY_DATE":null,"PERIOD":"95.034","REV_AT_EPOCH":"130","APOAPSIS":"521.272","FILE":"3504942","OBJECT_ID":"2022-029AR","CENTER_NAME":"EARTH","CLASSIFICATION_TYPE":"U","MEAN_MOTION_DDOT":"0.0000000000000","ARG_OF_PERICENTER":"49.9610","MEAN_MOTION_DOT":"-0.00721869","SITE":"AFETR","RA_OF_ASC_NODE":"8.5831","TIME_SYSTEM":"UTC","ELEMENT_SET_NO":"999","EPHEMERIS_TYPE":"0","MEAN_MOTION":"15.15254362","MEAN_ELEMENT_THEORY":"SGP4","PERIAPSIS":"519.145","REF_FRAME":"TEME","EPOCH":"2022-06-28T22:00:00.999936","ECCENTRICITY":"0.00015420"},{"PERIOD":"95.009","DECAY_DATE":null,"COUNTRY_CODE":"US","BSTAR":"-0.04032000000000","NORAD_CAT_ID":"52129","APOAPSIS":"519.999","REV_AT_EPOCH":"130","INCLINATION":"53.2176","MEAN_ANOMALY":"315.0698","OBJECT_NAME":"STARLINK-3661","RCS_SIZE":"LARGE","SEMIMAJOR_AXIS":"6897.139","TLE_LINE2":"2 52129  53.2176   8.5880 0001443  54.5099 315.0698 15.15651437  1302","GP_ID":"207062212","OBJECT_TYPE":"PAYLOAD","TLE_LINE1":"1 52129U 22029AT  22179.91667824 -.00722691  00000-0 -40320-1 0  9997","LAUNCH_DATE":"2022-03-19","PERIAPSIS":"518.008","REF_FRAME":"TEME","MEAN_MOTION":"15.15651437","MEAN_ELEMENT_THEORY":"SGP4","EPHEMERIS_TYPE":"0","ECCENTRICITY":"0.00014430","EPOCH":"2022-06-28T22:00:00.999936","ARG_OF_PERICENTER":"54.5099","MEAN_MOTION_DDOT":"0.0000000000000","CENTER_NAME":"EARTH","CLASSIFICATION_TYPE":"U","OBJECT_ID":"2022-029AT","FILE":"3504942","ELEMENT_SET_NO":"999","TIME_SYSTEM":"UTC","RA_OF_ASC_NODE":"8.5880","SITE":"AFETR","MEAN_MOTION_DOT":"-0.00722691"},{"ARG_OF_PERICENTER":"48.7836","OBJECT_ID":"2022-029AV","FILE":"3504942","MEAN_MOTION_DDOT":"0.0000000000000","CLASSIFICATION_TYPE":"U","CENTER_NAME":"EARTH","TIME_SYSTEM":"UTC","ELEMENT_SET_NO":"999","RA_OF_ASC_NODE":"8.5904","SITE":"AFETR","MEAN_MOTION_DOT":"-0.00723039","PERIAPSIS":"517.345","REF_FRAME":"TEME","EPHEMERIS_TYPE":"0","MEAN_ELEMENT_THEORY":"SGP4","MEAN_MOTION":"15.15849947","EPOCH":"2022-06-28T22:00:00.999936","ECCENTRICITY":"0.00015320","INCLINATION":"53.2176","OBJECT_NAME":"STARLINK-3711","RCS_SIZE":"LARGE","MEAN_ANOMALY":"337.5687","TLE_LINE1":"1 52131U 22029AV  22179.91667824 -.00723039  00000-0 -40112-1 0  9996","OBJECT_TYPE":"PAYLOAD","LAUNCH_DATE":"2022-03-19","SEMIMAJOR_AXIS":"6896.536","TLE_LINE2":"2 52131  53.2176   8.5904 0001532  48.7836 337.5687 15.15849947  1307","GP_ID":"207062310","PERIOD":"94.996","BSTAR":"-0.04011200000000","NORAD_CAT_ID":"52131","DECAY_DATE":null,"COUNTRY_CODE":"US","APOAPSIS":"519.458","REV_AT_EPOCH":"130"},{"MEAN_MOTION":"15.15452944","MEAN_ELEMENT_THEORY":"SGP4","EPHEMERIS_TYPE":"0","PERIAPSIS":"518.545","REF_FRAME":"TEME","ECCENTRICITY":"0.00015380","EPOCH":"2022-06-28T22:00:00.999936","MEAN_MOTION_DDOT":"0.0000000000000","CLASSIFICATION_TYPE":"U","CENTER_NAME":"EARTH","OBJECT_ID":"2022-029AW","FILE":"3504942","ARG_OF_PERICENTER":"48.5460","SITE":"AFETR","RA_OF_ASC_NODE":"8.5857","MEAN_MOTION_DOT":"-0.00722351","ELEMENT_SET_NO":"999","TIME_SYSTEM":"UTC","DECAY_DATE":null,"COUNTRY_CODE":"US","BSTAR":"-0.04052800000000","NORAD_CAT_ID":"52132","PERIOD":"95.021","APOAPSIS":"520.667","REV_AT_EPOCH":"130","INCLINATION":"53.2175","TLE_LINE2":"2 52132  53.2175   8.5857 0001538  48.5460 304.1687 15.15452944  1308","SEMIMAJOR_AXIS":"6897.741","GP_ID":"207062501","TLE_LINE1":"1 52132U 22029AW  22179.91667824 -.00722351  00000-0 -40528-1 0  9994","OBJECT_TYPE":"PAYLOAD","LAUNCH_DATE":"2022-03-19","MEAN_ANOMALY":"304.1687","OBJECT_NAME":"STARLINK-3718","RCS_SIZE":"LARGE"},{"CLASSIFICATION_TYPE":"U","CENTER_NAME":"EARTH","MEAN_MOTION_DDOT":"0.0000000000000","FILE":"3504942","OBJECT_ID":"2022-029AX","ARG_OF_PERICENTER":"57.7144","MEAN_MOTION_DOT":"-0.00723213","SITE":"AFETR","RA_OF_ASC_NODE":"8.5948","ELEMENT_SET_NO":"999","TIME_SYSTEM":"UTC","MEAN_MOTION":"15.16246704","MEAN_ELEMENT_THEORY":"SGP4","EPHEMERIS_TYPE":"0","REF_FRAME":"TEME","PERIAPSIS":"516.229","ECCENTRICITY":"0.00014060","EPOCH":"2022-06-28T22:00:00.999936","INCLINATION":"53.2176","GP_ID":"207062402","SEMIMAJOR_AXIS":"6895.333","TLE_LINE2":"2 52133  53.2176   8.5948 0001406  57.7144   1.9051 15.16246704  1309","LAUNCH_DATE":"2022-03-19","OBJECT_TYPE":"PAYLOAD","TLE_LINE1":"1 52133U 22029AX  22179.91667824 -.00723213  00000-0 -39670-1 0  9999","MEAN_ANOMALY":"1.9051","RCS_SIZE":"LARGE","OBJECT_NAME":"STARLINK-3707","COUNTRY_CODE":"US","DECAY_DATE":null,"NORAD_CAT_ID":"52133","BSTAR":"-0.03967000000000","PERIOD":"94.971","REV_AT_EPOCH":"130","APOAPSIS":"518.168"},{"LAUNCH_DATE":"2022-03-19","OBJECT_TYPE":"PAYLOAD","TLE_LINE1":"1 52134U 22029AY  22179.91667824 -.00723185  00000-0 -39894-1 0  9996","GP_ID":"207062560","TLE_LINE2":"2 52134  53.2176   8.5927 0001471  52.6716 350.3605 15.16048355  1306","SEMIMAJOR_AXIS":"6895.935","RCS_SIZE":"LARGE","OBJECT_NAME":"STARLINK-3721","MEAN_ANOMALY":"350.3605","INCLINATION":"53.2176","REV_AT_EPOCH":"130","APOAPSIS":"518.814","NORAD_CAT_ID":"52134","BSTAR":"-0.03989400000000","COUNTRY_CODE":"US","DECAY_DATE":null,"PERIOD":"94.984","MEAN_MOTION_DOT":"-0.00723185","RA_OF_ASC_NODE":"8.5927","SITE":"AFETR","TIME_SYSTEM":"UTC","ELEMENT_SET_NO":"999","FILE":"3504942","OBJECT_ID":"2022-029AY","CLASSIFICATION_TYPE":"U","CENTER_NAME":"EARTH","MEAN_MOTION_DDOT":"0.0000000000000","ARG_OF_PERICENTER":"52.6716","EPOCH":"2022-06-28T22:00:00.999936","ECCENTRICITY":"0.00014710","EPHEMERIS_TYPE":"0","MEAN_MOTION":"15.16048355","MEAN_ELEMENT_THEORY":"SGP4","REF_FRAME":"TEME","PERIAPSIS":"516.785"},{"INCLINATION":"53.2176","GP_ID":"207062658","TLE_LINE2":"2 52135  53.2176   8.6011 0001479  58.7175  50.1084 15.16841461  1301","SEMIMAJOR_AXIS":"6893.531","LAUNCH_DATE":"2022-03-19","OBJECT_TYPE":"PAYLOAD","TLE_LINE1":"1 52135U 22029AZ  22179.91667824 -.00722624  00000-0 -38964-1 0  9991","MEAN_ANOMALY":"50.1084","RCS_SIZE":"LARGE","OBJECT_NAME":"STARLINK-3729","COUNTRY_CODE":"US","DECAY_DATE":null,"NORAD_CAT_ID":"52135","BSTAR":"-0.03896400000000","PERIOD":"94.934","REV_AT_EPOCH":"130","APOAPSIS":"516.415","CENTER_NAME":"EARTH","CLASSIFICATION_TYPE":"U","MEAN_MOTION_DDOT":"0.0000000000000","FILE":"3504942","OBJECT_ID":"2022-029AZ","ARG_OF_PERICENTER":"58.7175","MEAN_MOTION_DOT":"-0.00722624","SITE":"AFETR","RA_OF_ASC_NODE":"8.6011","ELEMENT_SET_NO":"999","TIME_SYSTEM":"UTC","MEAN_ELEMENT_THEORY":"SGP4","MEAN_MOTION":"15.16841461","EPHEMERIS_TYPE":"0","REF_FRAME":"TEME","PERIAPSIS":"514.376","ECCENTRICITY":"0.00014790","EPOCH":"2022-06-28T22:00:00.999936"},{"COUNTRY_CODE":"US","DECAY_DATE":null,"NORAD_CAT_ID":"52136","BSTAR":"-0.03944100000000","PERIOD":"94.959","REV_AT_EPOCH":"130","APOAPSIS":"517.504","INCLINATION":"53.2176","GP_ID":"207062851","SEMIMAJOR_AXIS":"6894.732","TLE_LINE2":"2 52136  53.2176   8.5970 0001315  69.3171   6.7971 15.16445019  1309","LAUNCH_DATE":"2022-03-19","TLE_LINE1":"1 52136U 22029BA  22179.91667824 -.00723134  00000-0 -39441-1 0  9990","OBJECT_TYPE":"PAYLOAD","MEAN_ANOMALY":"6.7971","RCS_SIZE":"LARGE","OBJECT_NAME":"STARLINK-3720","MEAN_MOTION":"15.16445019","MEAN_ELEMENT_THEORY":"SGP4","EPHEMERIS_TYPE":"0","PERIAPSIS":"515.690","REF_FRAME":"TEME","ECCENTRICITY":"0.00013150","EPOCH":"2022-06-28T22:00:00.999936","CENTER_NAME":"EARTH","CLASSIFICATION_TYPE":"U","MEAN_MOTION_DDOT":"0.0000000000000","FILE":"3504942","OBJECT_ID":"2022-029BA","ARG_OF_PERICENTER":"69.3171","MEAN_MOTION_DOT":"-0.00723134","RA_OF_ASC_NODE":"8.5970","SITE":"AFETR","ELEMENT_SET_NO":"999","TIME_SYSTEM":"UTC"},{"PERIAPSIS":"513.769","REF_FRAME":"TEME","EPHEMERIS_TYPE":"0","MEAN_MOTION":"15.17039294","MEAN_ELEMENT_THEORY":"SGP4","EPOCH":"2022-06-28T22:00:00.999936","ECCENTRICITY":"0.00014900","ARG_OF_PERICENTER":"61.4272","FILE":"3504942","OBJECT_ID":"2022-029BB","CENTER_NAME":"EARTH","CLASSIFICATION_TYPE":"U","MEAN_MOTION_DDOT":"0.0000000000000","TIME_SYSTEM":"UTC","ELEMENT_SET_NO":"999","MEAN_MOTION_DOT":"-0.00721688","RA_OF_ASC_NODE":"8.6031","SITE":"AFETR","PERIOD":"94.922","NORAD_CAT_ID":"52137","BSTAR":"-0.03868900000000","COUNTRY_CODE":"US","DECAY_DATE":null,"REV_AT_EPOCH":"130","APOAPSIS":"515.823","INCLINATION":"53.2176","RCS_SIZE":"LARGE","OBJECT_NAME":"STARLINK-3733","MEAN_ANOMALY":"63.6159","LAUNCH_DATE":"2022-03-19","TLE_LINE1":"1 52137U 22029BB  22179.91667824 -.00721688  00000-0 -38689-1 0  9996","OBJECT_TYPE":"PAYLOAD","GP_ID":"207062751","TLE_LINE2":"2 52137  53.2176   8.6031 0001490  61.4272  63.6159 15.17039294  1303","SEMIMAJOR_AXIS":"6892.931"},{"OBJECT_ID":"2022-029BC","FILE":"3504942","MEAN_MOTION_DDOT":"0.0000000000000","CENTER_NAME":"EARTH","CLASSIFICATION_TYPE":"U","ARG_OF_PERICENTER":"69.6202","SITE":"AFETR","RA_OF_ASC_NODE":"8.5991","MEAN_MOTION_DOT":"-0.00722910","TIME_SYSTEM":"UTC","ELEMENT_SET_NO":"999","EPHEMERIS_TYPE":"0","MEAN_ELEMENT_THEORY":"SGP4","MEAN_MOTION":"15.16643261","REF_FRAME":"TEME","PERIAPSIS":"515.070","EPOCH":"2022-06-28T22:00:00.999936","ECCENTRICITY":"0.00013440","INCLINATION":"53.2177","OBJECT_TYPE":"PAYLOAD","TLE_LINE1":"1 52138U 22029BC  22179.91667824 -.00722910  00000-0 -39204-1 0  9990","LAUNCH_DATE":"2022-03-19","TLE_LINE2":"2 52138  53.2177   8.5991 0001344  69.6202  22.8962 15.16643261  1303","SEMIMAJOR_AXIS":"6894.131","GP_ID":"207062213","OBJECT_NAME":"STARLINK-3723","RCS_SIZE":"LARGE","MEAN_ANOMALY":"22.8962","BSTAR":"-0.03920400000000","NORAD_CAT_ID":"52138","DECAY_DATE":null,"COUNTRY_CODE":"US","PERIOD":"94.947","APOAPSIS":"516.923","REV_AT_EPOCH":"130"}];
